[{"OBJECT_NAME":"STARLINK-31827","OBJECT_ID":"2024-088V","EPOCH":"2026-03-09T11:15:39.159936","MEAN_MOTION":15.3018917,"ECCENTRICITY":0.00010532,"INCLINATION":53.1597,"RA_OF_ASC_NODE":141.2623,"ARG_OF_PERICENTER":99.001,"MEAN_ANOMALY":261.111,"EPHEMERIS_TYPE":0,"CLASSIFICATION_TYPE":"U","NORAD_CAT_ID":59727,"ELEMENT_SET_NO":999,"REV_AT_EPOCH":10376,"BSTAR":3.0487709e-5,"MEAN_MOTION_DOT":5.44e-6,"MEAN_MOTION_DDOT":0},{"OBJECT_NAME":"PEGASUS DEB","OBJECT_ID":"1994-029AG","EPOCH":"2026-03-09T11:16:42.963744","MEAN_MOTION":15.37636263,"ECCENTRICITY":0.0031206,"INCLINATION":82.0362,"RA_OF_ASC_NODE":86.2933,"ARG_OF_PERICENTER":155.6019,"MEAN_ANOMALY":204.671,"EPHEMERIS_TYPE":0,"CLASSIFICATION_TYPE":"U","NORAD_CAT_ID":23986,"ELEMENT_SET_NO":999,"REV_AT_EPOCH":61542,"BSTAR":0.00061808813,"MEAN_MOTION_DOT":0.00023279,"MEAN_MOTION_DDOT":0}]
